STARLINK-31908          
1 59901U 24100S   26068.52828074  .00000679  00000+0  34208-4 0  9991
2 59901  43.0036 119.2585 0001348 225.6709 134.4033 15.27569115101204
REAL                    
1 64875U 25154G   26068.72233414  .00022901  00000+0  82904-3 0  9994
2 64875  97.4133 137.2581 0001853 118.5876 241.5550 15.28408058 34830
